{
  "type": "FeatureCollection",
  "features": [
    {
      "type": "Feature",
      "properties": {
        "stroke": "#0008ff",
        "stroke-width": 2,
        "stroke-opacity": 1,
        "fill": "#0060fa",
        "fill-opacity": 1
      },
      "geometry": {
        "coordinates": [
          [
            [
              -73.94930772579497,
              40.76277611171008
            ],
            [
              -73.94987936099982,
              40.761694654093645
            ],
            [
              -73.95092524094005,
              40.760914907684935
            ],
            [
              -73.9508631302893,
              40.760853487890046
            ],
            [
              -73.94983321286313,
              40.76156201272488
            ],
            [
              -73.94921352157525,
              40.762751215461066
            ],
            [
              -73.94930772579497,
              40.76277611171008
            ]
          ]
        ],
        "type": "Polygon"
      },
      "id": 0
    }
  ]
}