{"type":"FeatureCollection","features":[{"type":"Feature","properties":{"name":"Manhattan Park Senior Mobility Pods Service Area","type":"Passenger mobility service"},"geometry":{"type":"Polygon","coordinates":[[[-73.94712091361035,40.76467448075374],[-73.94746024884873,40.76437048766053],[-73.94799661745114,40.764624736524524],[-73.9476937698731,40.76512217714159],[-73.94807324153739,40.765373659592086],[-73.94722672782434,40.76638787036623],[-73.94674144194606,40.76615297279008],[-73.9462889949618,40.76659236875611],[-73.94570519240085,40.76627733043364],[-73.94712091361035,40.76467448075374]]]}}]}