{
  "type": "FeatureCollection",
  "features": [
    {
      "type": "Feature",
      "properties": {
        "name": "Foodtown Area",
        "type": "Grocery hub site"
      },
      "geometry": {
        "type": "Polygon",
        "coordinates": [
          [
            [-73.94743216481685, 40.76438214712533],
            [-73.94696327173682, 40.76491148364107],
            [-73.94660121505478, 40.76476088726952],
            [-73.94703746368006, 40.76422593023574],
            [-73.94743216481685, 40.76438214712533]
          ]
        ]
      }
    }
  ]
}