{
  "type": "FeatureCollection",
  "features": [
    {
      "type": "Feature",
      "properties": {},
      "geometry": {
        "coordinates": [
          [
            [
              -73.95341487580961,
              40.75885127438028
            ],
            [
              -73.95302569176549,
              40.75929892143529
            ],
            [
              -73.95353018960073,
              40.75957187547638
            ],
            [
              -73.95845985416283,
              40.753992472188884
            ],
            [
              -73.95341487580961,
              40.75885127438028
            ]
          ]
        ],
        "type": "Polygon"
      }
    }
  ]
}
