{
  "type": "FeatureCollection",
  "features": [
    {
      "type": "Feature",
      "properties": {
        "name": "Octagon Pods Service Corridor",
        "type": "AV mobility corridor",
        "description": "60-meter corridor along Main Street on Roosevelt Island, from Coler Specialty Hospital to Tramway Plaza. Centerline derived from OSM Main Street geometry, smoothed by latitude-binned averaging."
      },
      "geometry": {
        "type": "Polygon",
        "coordinates": [
          [
            [
              -73.94171,
              40.770801
            ],
            [
              -73.942861,
              40.77
            ],
            [
              -73.943766,
              40.769391
            ],
            [
              -73.943555,
              40.769602
            ],
            [
              -73.943034,
              40.769288
            ],
            [
              -73.942642,
              40.769
            ],
            [
              -73.942526,
              40.768622
            ],
            [
              -73.942584,
              40.768317
            ],
            [
              -73.942808,
              40.768037
            ],
            [
              -73.942981,
              40.767846
            ],
            [
              -73.943288,
              40.767523
            ],
            [
              -73.943609,
              40.767197
            ],
            [
              -73.944108,
              40.766858
            ],
            [
              -73.94459,
              40.766659
            ],
            [
              -73.945174,
              40.766325
            ],
            [
              -73.945583,
              40.766018
            ],
            [
              -73.945985,
              40.765575
            ],
            [
              -73.946334,
              40.765183
            ],
            [
              -73.946675,
              40.764805
            ],
            [
              -73.946936,
              40.76451
            ],
            [
              -73.947093,
              40.764332
            ],
            [
              -73.947284,
              40.764112
            ],
            [
              -73.947493,
              40.763877
            ],
            [
              -73.947696,
              40.763661
            ],
            [
              -73.947969,
              40.763421
            ],
            [
              -73.948303,
              40.763174
            ],
            [
              -73.948632,
              40.762932
            ],
            [
              -73.948851,
              40.762751
            ],
            [
              -73.948975,
              40.762571
            ],
            [
              -73.949079,
              40.7624
            ],
            [
              -73.949246,
              40.762084
            ],
            [
              -73.949409,
              40.761795
            ],
            [
              -73.949765,
              40.761372
            ],
            [
              -73.95012,
              40.761072
            ],
            [
              -73.950559,
              40.760754
            ],
            [
              -73.950895,
              40.760514
            ],
            [
              -73.951121,
              40.760332
            ],
            [
              -73.951158,
              40.760251
            ],
            [
              -73.951124,
              40.760101
            ],
            [
              -73.951115,
              40.759801
            ],
            [
              -73.9513,
              40.759442
            ],
            [
              -73.951587,
              40.759115
            ],
            [
              -73.951943,
              40.758745
            ],
            [
              -73.95225,
              40.758427
            ],
            [
              -73.952549,
              40.758138
            ],
            [
              -73.952876,
              40.757872
            ],
            [
              -73.953154,
              40.757671
            ],
            [
              -73.953325,
              40.757551
            ],
            [
              -73.953807,
              40.757948
            ],
            [
              -73.95364,
              40.758065
            ],
            [
              -73.953382,
              40.758251
            ],
            [
              -73.953089,
              40.758489
            ],
            [
              -73.952817,
              40.758753
            ],
            [
              -73.952517,
              40.759064
            ],
            [
              -73.952168,
              40.759426
            ],
            [
              -73.951926,
              40.759699
            ],
            [
              -73.951811,
              40.759908
            ],
            [
              -73.951832,
              40.760054
            ],
            [
              -73.951865,
              40.760311
            ],
            [
              -73.951716,
              40.760628
            ],
            [
              -73.951399,
              40.760895
            ],
            [
              -73.951048,
              40.761147
            ],
            [
              -73.950627,
              40.761451
            ],
            [
              -73.950334,
              40.761696
            ],
            [
              -73.950031,
              40.762056
            ],
            [
              -73.949903,
              40.76229
            ],
            [
              -73.949734,
              40.762611
            ],
            [
              -73.94961,
              40.762815
            ],
            [
              -73.949427,
              40.763067
            ],
            [
              -73.949141,
              40.763309
            ],
            [
              -73.948798,
              40.763562
            ],
            [
              -73.948484,
              40.763793
            ],
            [
              -73.948254,
              40.763996
            ],
            [
              -73.948077,
              40.764185
            ],
            [
              -73.947875,
              40.764413
            ],
            [
              -73.947685,
              40.764631
            ],
            [
              -73.947527,
              40.764811
            ],
            [
              -73.947263,
              40.765108
            ],
            [
              -73.946922,
              40.765487
            ],
            [
              -73.946571,
              40.765881
            ],
            [
              -73.94613,
              40.766363
            ],
            [
              -73.945635,
              40.766736
            ],
            [
              -73.944982,
              40.76711
            ],
            [
              -73.944521,
              40.767298
            ],
            [
              -73.94413,
              40.767565
            ],
            [
              -73.943861,
              40.767843
            ],
            [
              -73.94356,
              40.768159
            ],
            [
              -73.943403,
              40.768333
            ],
            [
              -73.943243,
              40.768519
            ],
            [
              -73.943235,
              40.768593
            ],
            [
              -73.943248,
              40.768717
            ],
            [
              -73.943492,
              40.768874
            ],
            [
              -73.943978,
              40.769168
            ],
            [
              -73.94437,
              40.769677
            ],
            [
              -73.943339,
              40.7704
            ],
            [
              -73.94219,
              40.771199
            ],
            [
              -73.94171,
              40.770801
            ]
          ]
        ]
      }
    }
  ]
}