{"type":"FeatureCollection","features":[{"type":"Feature","properties":{},"geometry":{"coordinates":[[[-73.95409748637346,40.757631843889925],[-73.95374701184183,40.75739018432478],[-73.95262650262434,40.75800480383498],[-73.95115824916644,40.75970229486643],[-73.95108097266886,40.76037542585843],[-73.94968999570857,40.761458274455975],[-73.94891723073083,40.76277522870549],[-73.94791263625972,40.76356538873006],[-73.94520795883729,40.76660888030483],[-73.94397153487276,40.76690151638016],[-73.9423873666685,40.76856951740487],[-73.94277374915772,40.768745094024666],[-73.9442806191962,40.76713605100804],[-73.94549162380893,40.76686284842131],[-73.94817129358955,40.76383803044192],[-73.94925346792385,40.763096441150054],[-73.95000068353554,40.76171081793214],[-73.95180430742641,40.760442264305425],[-73.95157241292635,40.75983725328004],[-73.95288648176114,40.758412528146266],[-73.95409748637346,40.757631843889925]]],"type":"Polygon"}}]}