{
  "type": "FeatureCollection",
  "features": [
    {
      "type": "Feature",
      "properties": {},
      "geometry": {
        "coordinates": [
          [
            [
              -73.95884705288897,
              40.75365367993666
            ],
            [
              -73.96031666908749,
              40.75143940718368
            ],
            [
              -73.95945600987733,
              40.750928883837844
            ],
            [
              -73.95733277984488,
              40.752758739381775
            ],
            [
              -73.95884705288897,
              40.75365367993666
            ]
          ]
        ],
        "type": "Polygon"
      }
    }
  ]
}