{
  "type": "FeatureCollection",
  "features": [
    {
      "type": "Feature",
      "properties": {},
      "geometry": {
        "coordinates": [
          [
            -73.9558293398461,
            40.75654850383822
          ],
          [
            -73.95851813455695,
            40.753480103305435
          ],
          [
            -73.95735415416306,
            40.752862879194055
          ],
          [
            -73.95439764396097,
            40.75575496555291
          ],
          [
            -73.9558293398461,
            40.75655732087685
          ]
        ],
        "type": "LineString"
      }
    },
    {
      "type": "Feature",
      "properties": {},
      "geometry": {
        "coordinates": [
          [
            [
              -73.952100498195,
              40.75896842151454
            ],
            [
              -73.95088719560255,
              40.75896842151454
            ],
            [
              -73.95088719560255,
              40.75957691601894
            ],
            [
              -73.952100498195,
              40.75957691601894
            ],
            [
              -73.952100498195,
              40.75896842151454
            ]
          ]
        ],
        "type": "Polygon"
      }
    },
    {
      "type": "Feature",
      "properties": {},
      "geometry": {
        "coordinates": [
          [
            [
              -73.94897699218501,
              40.76266033176401
            ],
            [
              -73.94897699218501,
              40.76188676422595
            ],
            [
              -73.9482289888786,
              40.76188676422595
            ],
            [
              -73.9482289888786,
              40.76266033176401
            ],
            [
              -73.94897699218501,
              40.76266033176401
            ]
          ]
        ],
        "type": "Polygon"
      }
    },
    {
      "type": "Feature",
      "properties": {},
      "geometry": {
        "coordinates": [
          [
            [
              -73.94797824069772,
              40.76538984686525
            ],
            [
              -73.94684185105953,
              40.76538984686525
            ],
            [
              -73.94684185105953,
              40.76619605766288
            ],
            [
              -73.94797824069772,
              40.76619605766288
            ],
            [
              -73.94797824069772,
              40.76538984686525
            ]
          ]
        ],
        "type": "Polygon"
      }
    },
    {
      "type": "Feature",
      "properties": {},
      "geometry": {
        "coordinates": [
          [
            [
              -73.94487262725015,
              40.769333076348005
            ],
            [
              -73.94487262725015,
              40.76860316360944
            ],
            [
              -73.94363554485881,
              40.76860316360944
            ],
            [
              -73.94363554485881,
              40.769333076348005
            ],
            [
              -73.94487262725015,
              40.769333076348005
            ]
          ]
        ],
        "type": "Polygon"
      }
    },
    {
      "type": "Feature",
      "properties": {},
      "geometry": {
        "coordinates": [
          [
            [
              -73.95411817667944,
              40.75780283054988
            ],
            [
              -73.95411817667944,
              40.7573509222091
            ],
            [
              -73.9534495782993,
              40.7573509222091
            ],
            [
              -73.9534495782993,
              40.75780283054988
            ],
            [
              -73.95411817667944,
              40.75780283054988
            ]
          ]
        ],
        "type": "Polygon"
      }
    },
    {
      "type": "Feature",
      "properties": {},
      "geometry": {
        "coordinates": [
          [
            [
              -73.95345986442823,
              40.75922865914191
            ],
            [
              -73.95345986442823,
              40.758893631128814
            ],
            [
              -73.95275012153219,
              40.758893631128814
            ],
            [
              -73.95275012153219,
              40.75922865914191
            ],
            [
              -73.95345986442823,
              40.75922865914191
            ]
          ]
        ],
        "type": "Polygon"
      }
    }
  ]
}