{"type":"FeatureCollection","features":[{"type":"Feature","properties":{},"geometry":{"coordinates":[[[-73.95171688011679,40.76045637048483],[-73.95222948012254,40.76036167121154],[-73.95264206061528,40.760077572581565],[-73.95335469964802,40.7594620213853],[-73.95365475818848,40.75911162815805],[-73.95414235331619,40.75881805403242],[-73.95485499234891,40.75806990765676],[-73.9549300069839,40.757823680425616],[-73.95554076921019,40.75698362409625],[-73.95594084726368,40.756576394989736],[-73.95429052529323,40.75570510573226],[-73.95406548138777,40.75579034105496],[-73.95356538382127,40.75632069171789],[-73.95336534479429,40.756576394989736],[-73.95306528625427,40.756888919875564],[-73.95297776918004,40.757078328182615],[-73.95355288138201,40.75736243963027],[-73.95369040821276,40.7574950245573],[-73.95357788626005,40.757656020184356],[-73.95271521795732,40.75825264763853],[-73.95130244233111,40.75972051778655],[-73.9513524520876,40.75995726800099],[-73.95140246184414,40.760250837095356],[-73.9513774569661,40.76045917566597],[-73.94982377912253,40.76152235964878],[-73.94921115960327,40.76276288777555],[-73.9480234278816,40.76362461505934],[-73.94731078884888,40.76328371329376],[-73.94677318396464,40.76387082080268],[-73.94636060347189,40.764325352086416],[-73.94585950506453,40.764997978257725],[-73.94647212458378,40.76534834045444],[-73.94525938798455,40.76671189466609],[-73.94542191969379,40.76678764685724],[-73.94615956360454,40.766020651930205],[-73.94662215385424,40.76624791060917],[-73.9477473733797,40.76504532460845],[-73.94725977825198,40.764742307380146],[-73.9481343090753,40.763770923892224],[-73.9492095188438,40.763003894149136],[-73.95007218714699,40.761564505801545],[-73.95171688011679,40.76045637048483]]],"type":"Polygon"}}]}