{"type":"FeatureCollection","features":[{"type":"Feature","properties":{"name":"Tram Plaza boarding island","stop":"3 of 3","type":"Boarding island"},"geometry":{"coordinates":[[[-73.95372759025192,40.759008695388395],[-73.95273386662281,40.75852500040123],[-73.95214552078612,40.75904782709814],[-73.95333296804482,40.75941195447002],[-73.95372759025192,40.759008695388395]]],"type":"Polygon"}},{"type":"Feature","properties":{"name":"Octagon boarding island","stop":"2 of 3","type":"Boarding island"},"geometry":{"coordinates":[[[-73.94513059521145,40.768854576067156],[-73.94399142276582,40.768313100551296],[-73.94312356800684,40.76910398069058],[-73.94455716522171,40.769839518212144],[-73.94513059521145,40.768854576067156]]],"type":"Polygon"}},{"type":"Feature","properties":{"name":"Coler Specialty Hospital and Nursing Facility","type":"Long-term care campus","operator":"NYC Health + Hospitals","jurisdiction":"Roosevelt Island Operating Corporation (RIOC)"},"geometry":{"coordinates":[[[-73.9431,40.7692],[-73.9409,40.7691],[-73.9407,40.7701],[-73.94075,40.77105],[-73.94155,40.77175],[-73.9425,40.7718],[-73.94315,40.7711],[-73.9432,40.77],[-73.9431,40.7692]]],"type":"Polygon"}},{"type":"Feature","properties":{"name":"Coler main entrance boarding island","stop":"1 of 3","type":"Boarding island"},"geometry":{"coordinates":[[[-73.9429,40.7698],[-73.9421,40.7698],[-73.9421,40.7706],[-73.9429,40.7706],[-73.9429,40.7698]]],"type":"Polygon"}}]}