{
  "type": "FeatureCollection",
  "features": [
    {
      "type": "Feature",
      "properties": {},
      "geometry": {
        "coordinates": [
          [
            [
              -73.95281116526172,
              40.75945557707493
            ],
            [
              -73.95281116526172,
              40.75864021261344
            ],
            [
              -73.95141352571783,
              40.75864021261344
            ],
            [
              -73.95141352571783,
              40.75945557707493
            ],
            [
              -73.95281116526172,
              40.75945557707493
            ]
          ]
        ],
        "type": "Polygon"
      }
    },
    {
      "type": "Feature",
      "properties": {},
      "geometry": {
        "coordinates": [
          [
            [
              -73.95427825273323,
              40.75786429198433
            ],
            [
              -73.95427825273323,
              40.75721330074086
            ],
            [
              -73.95263754544264,
              40.75721330074086
            ],
            [
              -73.95263754544264,
              40.75786429198433
            ],
            [
              -73.95427825273323,
              40.75786429198433
            ]
          ]
        ],
        "type": "Polygon"
      }
    },
    {
      "type": "Feature",
      "properties": {},
      "geometry": {
        "coordinates": [
          [
            -73.95231982660154,
            40.7585508617349
          ],
          [
            -73.952887393188,
            40.75805434032205
          ],
          [
            -73.95233581439291,
            40.75795745766257
          ],
          [
            -73.95170429664162,
            40.758581137310756
          ],
          [
            -73.95234380828857,
            40.75853875150051
          ]
        ],
        "type": "LineString"
      }
    }
  ]
}