{
  "type": "FeatureCollection",
  "features": [
    {
      "type": "Feature",
      "properties": {},
      "geometry": {
        "coordinates": [
          [
            [
              -73.95331935131108,
              40.757103849710234
            ],
            [
              -73.9531957074825,
              40.75704038390734
            ],
            [
              -73.95342265898456,
              40.75670703340214
            ],
            [
              -73.95295818117172,
              40.75688942133826
            ],
            [
              -73.95302000308604,
              40.75713096131915
            ],
            [
              -73.95322255120105,
              40.757215376871045
            ],
            [
              -73.95331935131108,
              40.757103849710234
            ]
          ]
        ],
        "type": "Polygon"
      }
    }
  ]
}