{
  "type": "FeatureCollection",
  "features": [
    {
      "type": "Feature",
      "properties": {},
      "geometry": {
        "type": "Polygon",
        "coordinates": [
          [
            [
              -73.954717,
              40.7556893
            ],
            [
              -73.9545798,
              40.7557543
            ],
            [
              -73.9546055,
              40.7558582
            ],
            [
              -73.9547427,
              40.7558842
            ],
            [
              -73.9552315,
              40.7558647
            ],
            [
              -73.9553042,
              40.7560001
            ],
            [
              -73.9555587,
              40.7561608
            ],
            [
              -73.9557114,
              40.7562958
            ],
            [
              -73.9557202,
              40.7565856
            ],
            [
              -73.9546962,
              40.7579637
            ],
            [
              -73.9539631,
              40.7588774
            ],
            [
              -73.9534191,
              40.7591282
            ],
            [
              -73.9524021,
              40.7601852
            ],
            [
              -73.9515743,
              40.7604001
            ],
            [
              -73.9506756,
              40.7609913
            ],
            [
              -73.9498242,
              40.7615646
            ],
            [
              -73.949162,
              40.7627827
            ],
            [
              -73.9482159,
              40.7636067
            ],
            [
              -73.9475537,
              40.7641978
            ],
            [
              -73.946664,
              40.7652148
            ],
            [
              -73.9461304,
              40.7657716
            ],
            [
              -73.9461777,
              40.7659149
            ],
            [
              -73.9479279,
              40.7639624
            ],
            [
              -73.9484718,
              40.7635325
            ],
            [
              -73.9491577,
              40.763013
            ],
            [
              -73.9500566,
              40.7617762
            ],
            [
              -73.9505297,
              40.7612746
            ],
            [
              -73.9513811,
              40.7606655
            ],
            [
              -73.9516649,
              40.7605043
            ],
            [
              -73.9521379,
              40.7604684
            ],
            [
              -73.9525636,
              40.7601997
            ],
            [
              -73.953486,
              40.7594294
            ],
            [
              -73.9536699,
              40.7591648
            ],
            [
              -73.9542138,
              40.7587886
            ],
            [
              -73.9547814,
              40.7581078
            ],
            [
              -73.9557511,
              40.7567642
            ],
            [
              -73.9558557,
              40.7565593
            ],
            [
              -73.9557793,
              40.7561994
            ],
            [
              -73.9554399,
              40.7560194
            ],
            [
              -73.9553635,
              40.7558909
            ],
            [
              -73.9553551,
              40.7556209
            ],
            [
              -73.9549732,
              40.7557173
            ],
            [
              -73.954717,
              40.7556893
            ]
          ]
        ]
      }
    }
  ]
}