{
  "type": "FeatureCollection",
  "features": [
    {
      "type": "Feature",
      "properties": {
        "name": "Drone Landing Zones",
        "type": "Elevated Drone Landing Platform"
      },
      "geometry": {
        "type": "Polygon",
        "coordinates": [
          [
            [
              -73.95566265557997,
              40.754780680618396
            ],
            [
              -73.95566808336342,
              40.75478047862817
            ],
            [
              -73.95567345887426,
              40.75477987460275
            ],
            [
              -73.95567873034327,
              40.75477887435924
            ],
            [
              -73.95568384700323,
              40.754777487530575
            ],
            [
              -73.95568875957787,
              40.75477572747268
            ],
            [
              -73.9556934207563,
              40.7547736111359
            ],
            [
              -73.95569778564881,
              40.754771158901754
            ],
            [
              -73.95570181221906,
              40.75476839438663
            ],
            [
              -73.95570546168896,
              40.75476534421436
            ],
            [
              -73.95570869891215,
              40.754762037759804
            ],
            [
              -73.9557114927124,
              40.75475850686597
            ],
            [
              -73.95571381618397,
              40.75475478553733
            ],
            [
              -73.95571564695058,
              40.75475090961233
            ],
            [
              -73.95571696738105,
              40.75474691641826
            ],
            [
              -73.955717764759,
              40.754742844411815
            ],
            [
              -73.95571803140533,
              40.75473873280863
            ],
            [
              -73.9557177647522,
              40.7547346212057
            ],
            [
              -73.95571696736768,
              40.75473054920001
            ],
            [
              -73.95571564693117,
              40.754726556007164
            ],
            [
              -73.95571381615926,
              40.754722680083816
            ],
            [
              -73.95571149268336,
              40.75471895875717
            ],
            [
              -73.95570869887986,
              40.75471542786563
            ],
            [
              -73.95570546165469,
              40.75471212141356
            ],
            [
              -73.95570181218412,
              40.754709071243866
            ],
            [
              -73.95569778561455,
              40.75470630673132
            ],
            [
              -73.95569342072403,
              40.75470385449967
            ],
            [
              -73.95568875954882,
              40.75470173816518
            ],
            [
              -73.95568384697852,
              40.75469997810928
            ],
            [
              -73.95567873032385,
              40.75469859128226
            ],
            [
              -73.95567345886089,
              40.754697591039985
            ],
            [
              -73.9556680833566,
              40.75469698701531
            ],
            [
              -73.95566265557997,
              40.75469678502533
            ],
            [
              -73.95565722780333,
              40.75469698701531
            ],
            [
              -73.95565185229904,
              40.754697591039985
            ],
            [
              -73.95564658083607,
              40.75469859128226
            ],
            [
              -73.9556414641814,
              40.75469997810928
            ],
            [
              -73.95563655161112,
              40.75470173816518
            ],
            [
              -73.95563189043591,
              40.75470385449967
            ],
            [
              -73.95562752554538,
              40.75470630673132
            ],
            [
              -73.95562349897581,
              40.754709071243866
            ],
            [
              -73.95561984950524,
              40.75471212141356
            ],
            [
              -73.95561661228007,
              40.75471542786563
            ],
            [
              -73.95561381847658,
              40.75471895875717
            ],
            [
              -73.95561149500067,
              40.754722680083816
            ],
            [
              -73.95560966422876,
              40.754726556007164
            ],
            [
              -73.95560834379225,
              40.75473054920001
            ],
            [
              -73.95560754640775,
              40.7547346212057
            ],
            [
              -73.9556072797546,
              40.75473873280863
            ],
            [
              -73.95560754640094,
              40.754742844411815
            ],
            [
              -73.95560834377889,
              40.75474691641826
            ],
            [
              -73.95560966420935,
              40.75475090961233
            ],
            [
              -73.95561149497595,
              40.75475478553733
            ],
            [
              -73.95561381844753,
              40.75475850686597
            ],
            [
              -73.95561661224778,
              40.754762037759804
            ],
            [
              -73.95561984947096,
              40.75476534421436
            ],
            [
              -73.95562349894087,
              40.75476839438663
            ],
            [
              -73.95562752551112,
              40.754771158901754
            ],
            [
              -73.95563189040362,
              40.7547736111359
            ],
            [
              -73.95563655158206,
              40.75477572747268
            ],
            [
              -73.9556414641567,
              40.754777487530575
            ],
            [
              -73.95564658081666,
              40.75477887435924
            ],
            [
              -73.95565185228568,
              40.75477987460275
            ],
            [
              -73.95565722779651,
              40.75478047862817
            ],
            [
              -73.95566265557997,
              40.754780680618396
            ]
          ]
        ]
      }
    },
    {
      "type": "Feature",
      "properties": {
        "name": "Drone Takeoff Zones",
        "type": "Elevated Drone Takeoff Platform"
      },
      "geometry": {
        "type": "Polygon",
        "coordinates": [
          [
            [
              -73.95715976568218,
              40.74869944915538
            ],
            [
              -73.95716728407992,
              40.748699169339105
            ],
            [
              -73.95717473007119,
              40.74869833258505
            ],
            [
              -73.95718203194686,
              40.74869694695163
            ],
            [
              -73.95718911938567,
              40.74869502578332
            ],
            [
              -73.9571959241316,
              40.748692587582035
            ],
            [
              -73.9572023806511,
              40.748689655829054
            ],
            [
              -73.95720842676424,
              40.74868625875884
            ],
            [
              -73.95721400424362,
              40.74868242908706
            ],
            [
              -73.95721905937505,
              40.748678203695654
            ],
            [
              -73.95722354347485,
              40.748673623277504
            ],
            [
              -73.95722741335875,
              40.74866873194464
            ],
            [
              -73.95723063175775,
              40.748663576803295
            ],
            [
              -73.95723316767702,
              40.748658207500384
            ],
            [
              -73.95723499669441,
              40.74865267574526
            ],
            [
              -73.95723610119566,
              40.74864703481178
            ],
            [
              -73.957236470544,
              40.74864133902524
            ],
            [
              -73.95723610118259,
              40.7486356432392
            ],
            [
              -73.95723499666876,
              40.74863000230716
            ],
            [
              -73.95723316763979,
              40.74862447055438
            ],
            [
              -73.95723063171036,
              40.748619101254626
            ],
            [
              -73.95722741330303,
              40.74861394611713
            ],
            [
              -73.95722354341294,
              40.74860905478865
            ],
            [
              -73.95721905930932,
              40.74860447437527
            ],
            [
              -73.95721400417659,
              40.74860024898882
            ],
            [
              -73.9572084266985,
              40.748596419322006
            ],
            [
              -73.95720238058917,
              40.748593022256536
            ],
            [
              -73.95719592407586,
              40.74859009050794
            ],
            [
              -73.95718911933827,
              40.74858765231051
            ],
            [
              -73.95718203190961,
              40.74858573114535
            ],
            [
              -73.95717473004554,
              40.74858434551429
            ],
            [
              -73.95716728406684,
              40.748583508761676
            ],
            [
              -73.95715976568218,
              40.74858322894588
            ],
            [
              -73.9571522472975,
              40.748583508761676
            ],
            [
              -73.9571448013188,
              40.74858434551429
            ],
            [
              -73.95713749945473,
              40.74858573114535
            ],
            [
              -73.95713041202606,
              40.74858765231051
            ],
            [
              -73.95712360728847,
              40.74859009050794
            ],
            [
              -73.95711715077518,
              40.748593022256536
            ],
            [
              -73.95711110466584,
              40.748596419322006
            ],
            [
              -73.95710552718775,
              40.74860024898882
            ],
            [
              -73.95710047205503,
              40.74860447437527
            ],
            [
              -73.9570959879514,
              40.74860905478865
            ],
            [
              -73.95709211806133,
              40.74861394611713
            ],
            [
              -73.957088899654,
              40.748619101254626
            ],
            [
              -73.95708636372457,
              40.74862447055438
            ],
            [
              -73.95708453469558,
              40.74863000230716
            ],
            [
              -73.95708343018175,
              40.7486356432392
            ],
            [
              -73.95708306082034,
              40.74864133902524
            ],
            [
              -73.95708343016868,
              40.74864703481178
            ],
            [
              -73.95708453466993,
              40.74865267574526
            ],
            [
              -73.95708636368732,
              40.748658207500384
            ],
            [
              -73.95708889960659,
              40.748663576803295
            ],
            [
              -73.95709211800558,
              40.74866873194464
            ],
            [
              -73.95709598788949,
              40.748673623277504
            ],
            [
              -73.95710047198929,
              40.748678203695654
            ],
            [
              -73.95710552712072,
              40.74868242908706
            ],
            [
              -73.9571111046001,
              40.74868625875884
            ],
            [
              -73.95711715071324,
              40.748689655829054
            ],
            [
              -73.95712360723275,
              40.748692587582035
            ],
            [
              -73.95713041197868,
              40.74869502578332
            ],
            [
              -73.9571374994175,
              40.74869694695163
            ],
            [
              -73.95714480129315,
              40.74869833258505
            ],
            [
              -73.95715224728443,
              40.748699169339105
            ],
            [
              -73.95715976568218,
              40.74869944915538
            ]
          ]
        ]
      }
    },
    {
      "type": "Feature",
      "properties": {
        "name": "Drone Route",
        "type": "Drone Route"
      },
      "geometry": {
        "coordinates": [
          [
            -73.95712626057649,
            40.74868328082175
          ],
          [
            -73.95566715976187,
            40.75476262355784
          ]
        ],
        "type": "LineString"
      }
    }
  ]
}